[
    {
        "Altitude(m)": 607910.9896303272,
        "Argument of Periapsis(deg)": 0.0,
        "Eccentricity": 0.0,
        "Inclination(deg)": 60.0,
        "Latitude(deg)": -14.292834803048121,
        "Longitude(deg)": 73.44266256111337,
        "Mean Anomaly(deg)": -163.6364,
        "RAAN(deg)": 345.0,
        "Satellite Name": "Test1 1530",
        "Satellite Number": 1530,
        "Semi-Major Axis(m)": 6980739.136638005,
        "Time(s)": 0
    },
    {
        "Altitude(m)": 608060.2225091846,
        "Argument of Periapsis(deg)": 0.00010418945913296404,
        "Eccentricity": 0.0,
        "Inclination(deg)": 60.0,
        "Latitude(deg)": -14.826495911612184,
        "Longitude(deg)": 73.7312724437671,
        "Mean Anomaly(deg)": -163.01629385453816,
        "RAAN(deg)": 344.99957995086027,
        "Satellite Name": "Test1 1530",
        "Satellite Number": 1530,
        "Semi-Major Axis(m)": 6980739.136638005,
        "Time(s)": 10
    },
    {
        "Altitude(m)": 608211.8855984028,
        "Argument of Periapsis(deg)": 0.0002083789182659281,
        "Eccentricity": 0.0,
        "Inclination(deg)": 60.0,
        "Latitude(deg)": -15.3596408022071,
        "Longitude(deg)": 74.02149110697181,
        "Mean Anomaly(deg)": -162.3961877090764,
        "RAAN(deg)": 344.99915990172053,
        "Satellite Name": "Test1 1530",
        "Satellite Number": 1530,
        "Semi-Major Axis(m)": 6980739.136638005,
        "Time(s)": 20
    },
    {
        "Altitude(m)": 608365.9308168814,
        "Argument of Periapsis(deg)": 0.00031256837739889213,
        "Eccentricity": 0.0,
        "Inclination(deg)": 60.0,
        "Latitude(deg)": -15.892248265672642,
        "Longitude(deg)": 74.31338601804345,
        "Mean Anomaly(deg)": -161.7760815636145,
        "RAAN(deg)": 344.9987398525808,
        "Satellite Name": "Test1 1530",
        "Satellite Number": 1530,
        "Semi-Major Axis(m)": 6980739.136638005,
        "Time(s)": 30
    },
    {
        "Altitude(m)": 608522.3088859613,
        "Argument of Periapsis(deg)": 0.0004167578365318562,
        "Eccentricity": 0.0,
        "Inclination(deg)": 60.0,
        "Latitude(deg)": -16.42429676058997,
        "Longitude(deg)": 74.6070261632972,
        "Mean Anomaly(deg)": -161.15597541815276,
        "RAAN(deg)": 344.99831980344106,
        "Satellite Name": "Test1 1530",
        "Satellite Number": 1530,
        "Semi-Major Axis(m)": 6980739.136638005,
        "Time(s)": 40
    },
    {
        "Altitude(m)": 608680.9693507794,
        "Argument of Periapsis(deg)": 0.0005209472956648203,
        "Eccentricity": 0.0,
        "Inclination(deg)": 60.0,
        "Latitude(deg)": -16.95576439726268,
        "Longitude(deg)": 74.90248108337764,
        "Mean Anomaly(deg)": -160.53586927269092,
        "RAAN(deg)": 344.9978997543013,
        "Satellite Name": "Test1 1530",
        "Satellite Number": 1530,
        "Semi-Major Axis(m)": 6980739.136638005,
        "Time(s)": 50
    },
    {
        "Altitude(m)": 608841.8606020854,
        "Argument of Periapsis(deg)": 0.0006251367547977843,
        "Eccentricity": 0.0,
        "Inclination(deg)": 60.0,
        "Latitude(deg)": -17.486628921214603,
        "Longitude(deg)": 75.19982142229752,
        "Mean Anomaly(deg)": -159.91576312722904,
        "RAAN(deg)": 344.99747970516154,
        "Satellite Name": "Test1 1530",
        "Satellite Number": 1530,
        "Semi-Major Axis(m)": 6980739.136638005,
        "Time(s)": 60
    },
    {
        "Altitude(m)": 609004.9298986896,
        "Argument of Periapsis(deg)": 0.0007293262139307483,
        "Eccentricity": 0.0,
        "Inclination(deg)": 60.0,
        "Latitude(deg)": -18.0168676961853,
        "Longitude(deg)": 75.49911947734039,
        "Mean Anomaly(deg)": -159.29565698176725,
        "RAAN(deg)": 344.99705965602186,
        "Satellite Name": "Test1 1530",
        "Satellite Number": 1530,
        "Semi-Major Axis(m)": 6980739.136638005,
        "Time(s)": 70
    },
    {
        "Altitude(m)": 609170.1233904198,
        "Argument of Periapsis(deg)": 0.0008335156730637124,
        "Eccentricity": 0.0,
        "Inclination(deg)": 60.0,
        "Latitude(deg)": -18.546457686598668,
        "Longitude(deg)": 75.80044823697641,
        "Mean Anomaly(deg)": -158.6755508363054,
        "RAAN(deg)": 344.99663960688207,
        "Satellite Name": "Test1 1530",
        "Satellite Number": 1530,
        "Semi-Major Axis(m)": 6980739.136638005,
        "Time(s)": 80
    },
    {
        "Altitude(m)": 609337.3861416022,
        "Argument of Periapsis(deg)": 0.0009377051321966765,
        "Eccentricity": 0.0,
        "Inclination(deg)": 60.0,
        "Latitude(deg)": -19.075375439478634,
        "Longitude(deg)": 76.10388193255761,
        "Mean Anomaly(deg)": -158.05544469084356,
        "RAAN(deg)": 344.99621955774234,
        "Satellite Name": "Test1 1530",
        "Satellite Number": 1530,
        "Semi-Major Axis(m)": 6980739.136638005,
        "Time(s)": 90
    },
    {
        "Altitude(m)": 609506.6621550692,
        "Argument of Periapsis(deg)": 0.0010418945913296407,
        "Eccentricity": 0.0,
        "Inclination(deg)": 60.0,
        "Latitude(deg)": -19.603597065788474,
        "Longitude(deg)": 76.40949659094287,
        "Mean Anomaly(deg)": -157.43533854538168,
        "RAAN(deg)": 344.9957995086026,
        "Satellite Name": "Test1 1530",
        "Satellite Number": 1530,
        "Semi-Major Axis(m)": 6980739.136638005,
        "Time(s)": 100
    },
    {
        "Altitude(m)": 609677.89439667,
        "Argument of Periapsis(deg)": 0.0011460840504626045,
        "Eccentricity": 0.0,
        "Inclination(deg)": 60.0,
        "Latitude(deg)": -20.131098221167143,
        "Longitude(deg)": 76.71736907519615,
        "Mean Anomaly(deg)": -156.81523239991986,
        "RAAN(deg)": 344.99537945946287,
        "Satellite Name": "Test1 1530",
        "Satellite Number": 1530,
        "Semi-Major Axis(m)": 6980739.136638005,
        "Time(s)": 110
    },
    {
        "Altitude(m)": 609851.0248202545,
        "Argument of Periapsis(deg)": 0.0012502735095955685,
        "Eccentricity": 0.0,
        "Inclination(deg)": 60.0,
        "Latitude(deg)": -20.657854086036394,
        "Longitude(deg)": 77.02757763912261,
        "Mean Anomaly(deg)": -156.19512625445805,
        "RAAN(deg)": 344.99495941032313,
        "Satellite Name": "Test1 1530",
        "Satellite Number": 1530,
        "Semi-Major Axis(m)": 6980739.136638005,
        "Time(s)": 120
    },
    {
        "Altitude(m)": 610025.9943931731,
        "Argument of Periapsis(deg)": 0.0013544629687285324,
        "Eccentricity": 0.0,
        "Inclination(deg)": 60.0,
        "Latitude(deg)": -21.183839345049012,
        "Longitude(deg)": 77.34020248278225,
        "Mean Anomaly(deg)": -155.5750201089962,
        "RAAN(deg)": 344.99453936118334,
        "Satellite Name": "Test1 1530",
        "Satellite Number": 1530,
        "Semi-Major Axis(m)": 6980739.136638005,
        "Time(s)": 130
    },
    {
        "Altitude(m)": 610202.7431221955,
        "Argument of Periapsis(deg)": 0.0014586524278614966,
        "Eccentricity": 0.0,
        "Inclination(deg)": 60.0,
        "Latitude(deg)": -21.709028165853923,
        "Longitude(deg)": 77.65532479612268,
        "Mean Anomaly(deg)": -154.95491396353432,
        "RAAN(deg)": 344.9941193120436,
        "Satellite Name": "Test1 1530",
        "Satellite Number": 1530,
        "Semi-Major Axis(m)": 6980739.136638005,
        "Time(s)": 140
    },
    {
        "Altitude(m)": 610381.2100799072,
        "Argument of Periapsis(deg)": 0.0015628418869944607,
        "Eccentricity": 0.0,
        "Inclination(deg)": 60.0,
        "Latitude(deg)": -22.23339417714471,
        "Longitude(deg)": 77.97302731648459,
        "Mean Anomaly(deg)": -154.3348078180725,
        "RAAN(deg)": 344.99369926290393,
        "Satellite Name": "Test1 1530",
        "Satellite Number": 1530,
        "Semi-Major Axis(m)": 6980739.136638005,
        "Time(s)": 150
    },
    {
        "Altitude(m)": 610561.3334315382,
        "Argument of Periapsis(deg)": 0.0016670313461274247,
        "Eccentricity": 0.0,
        "Inclination(deg)": 60.0,
        "Latitude(deg)": -22.756910445964014,
        "Longitude(deg)": 78.29339488711226,
        "Mean Anomaly(deg)": -153.71470167261066,
        "RAAN(deg)": 344.99327921376414,
        "Satellite Name": "Test1 1530",
        "Satellite Number": 1530,
        "Semi-Major Axis(m)": 6980739.136638005,
        "Time(s)": 160
    },
    {
        "Altitude(m)": 610743.0504622074,
        "Argument of Periapsis(deg)": 0.0017712208052603888,
        "Eccentricity": 0.0,
        "Inclination(deg)": 60.0,
        "Latitude(deg)": -23.2795494542328,
        "Longitude(deg)": 78.61651350380177,
        "Mean Anomaly(deg)": -153.09459552714893,
        "RAAN(deg)": 344.9928591646244,
        "Satellite Name": "Test1 1530",
        "Satellite Number": 1530,
        "Semi-Major Axis(m)": 6980739.136638005,
        "Time(s)": 170
    },
    {
        "Altitude(m)": 610926.2976045905,
        "Argument of Periapsis(deg)": 0.001875410264393353,
        "Eccentricity": 0.0,
        "Inclination(deg)": 60.0,
        "Latitude(deg)": -23.80128307447244,
        "Longitude(deg)": 78.94247087542776,
        "Mean Anomaly(deg)": -152.47448938168705,
        "RAAN(deg)": 344.9924391154847,
        "Satellite Name": "Test1 1530",
        "Satellite Number": 1530,
        "Semi-Major Axis(m)": 6980739.136638005,
        "Time(s)": 180
    },
    {
        "Altitude(m)": 611111.0104669566,
        "Argument of Periapsis(deg)": 0.0019795997235263173,
        "Eccentricity": 0.0,
        "Inclination(deg)": 60.0,
        "Latitude(deg)": -24.32208254468593,
        "Longitude(deg)": 79.27135698547087,
        "Mean Anomaly(deg)": -151.85438323622526,
        "RAAN(deg)": 344.99201906634494,
        "Satellite Name": "Test1 1530",
        "Satellite Number": 1530,
        "Semi-Major Axis(m)": 6980739.136638005,
        "Time(s)": 190
    }
]